{
    "links": {
        "self": "http://www.neowsapp.com/rest/v1/neo/54073332?api_key=iIulBulltgU6a56xZRHN4H3l9WmuAYTsLGpBGhQ2"
    },
    "id": "54073332",
    "neo_reference_id": "54073332",
    "name": "(2020 TD7)",
    "designation": "2020 TD7",
    "nasa_jpl_url": "http://ssd.jpl.nasa.gov/sbdb.cgi?sstr=54073332",
    "absolute_magnitude_h": 26.768,
    "estimated_diameter": {
        "kilometers": {
            "estimated_diameter_min": 0.011774839,
            "estimated_diameter_max": 0.0263293404
        },
        "meters": {
            "estimated_diameter_min": 11.7748389721,
            "estimated_diameter_max": 26.3293403657
        },
        "miles": {
            "estimated_diameter_min": 0.0073165435,
            "estimated_diameter_max": 0.0163602886
        },
        "feet": {
            "estimated_diameter_min": 38.6313626932,
            "estimated_diameter_max": 86.3823530454
        }
    },
    "is_potentially_hazardous_asteroid": false,
    "close_approach_data": [
        {
            "close_approach_date": "1961-12-24",
            "close_approach_date_full": "1961-Dec-24 09:39",
            "epoch_date_close_approach": -253117260000,
            "relative_velocity": {
                "kilometers_per_second": "12.2279406433",
                "kilometers_per_hour": "44020.5863158296",
                "miles_per_hour": "27352.6804249665"
            },
            "miss_distance": {
                "astronomical": "0.0172597621",
                "lunar": "6.7140474569",
                "kilometers": "2582023.646866727",
                "miles": "1604395.0973737526"
            },
            "orbiting_body": "Mars"
        },
        {
            "close_approach_date": "2017-05-07",
            "close_approach_date_full": "2017-May-07 03:38",
            "epoch_date_close_approach": 1494128280000,
            "relative_velocity": {
                "kilometers_per_second": "12.2616329647",
                "kilometers_per_hour": "44141.8786729913",
                "miles_per_hour": "27428.0467787817"
            },
            "miss_distance": {
                "astronomical": "0.016278921",
                "lunar": "6.332500269",
                "kilometers": "2435291.90749827",
                "miles": "1513220.222365326"
            },
            "orbiting_body": "Mars"
        },
        {
            "close_approach_date": "2020-10-13",
            "close_approach_date_full": "2020-Oct-13 09:51",
            "epoch_date_close_approach": 1602582660000,
            "relative_velocity": {
                "kilometers_per_second": "9.9487832664",
                "kilometers_per_hour": "35815.6197589353",
                "miles_per_hour": "22254.4332885451"
            },
            "miss_distance": {
                "astronomical": "0.0022728523",
                "lunar": "0.8841395447",
                "kilometers": "340013.862904601",
                "miles": "211274.8174654538"
            },
            "orbiting_body": "Earth"
        },
        {
            "close_approach_date": "2020-10-13",
            "close_approach_date_full": "2020-Oct-13 10:32",
            "epoch_date_close_approach": 1602585120000,
            "relative_velocity": {
                "kilometers_per_second": "11.0140748855",
                "kilometers_per_hour": "39650.6695878097",
                "miles_per_hour": "24637.384111381"
            },
            "miss_distance": {
                "astronomical": "0.0045860236",
                "lunar": "1.7839631804",
                "kilometers": "686059.362329732",
                "miles": "426297.5200730216"
            },
            "orbiting_body": "Moon"
        }
    ],
    "orbital_data": {
        "orbit_id": "4",
        "orbit_determination_date": "2020-11-03 14:50:12",
        "first_observation_date": "2020-10-15",
        "last_observation_date": "2020-10-24",
        "data_arc_in_days": 9,
        "observations_used": 31,
        "orbit_uncertainty": "7",
        "minimum_orbit_intersection": ".000805257",
        "jupiter_tisserand_invariant": "3.277",
        "epoch_osculation": "2459000.5",
        "eccentricity": ".5952308237200412",
        "semi_major_axis": "2.373880334082448",
        "inclination": ".5438011189384229",
        "ascending_node_longitude": "14.75402382484577",
        "orbital_period": "1335.939099840613",
        "perihelion_distance": ".9608735874137457",
        "perihelion_argument": "339.2525995368434",
        "aphelion_distance": "3.78688708075115",
        "perihelion_time": "2459115.604644745307",
        "mean_anomaly": "328.9823644556445",
        "mean_motion": ".2694733615049897",
        "equinox": "J2000",
        "orbit_class": {
            "orbit_class_type": "APO",
            "orbit_class_description": "Near-Earth asteroid orbits which cross the Earth’s orbit similar to that of 1862 Apollo",
            "orbit_class_range": "a (semi-major axis) > 1.0 AU; q (perihelion) < 1.017 AU"
        }
    },
    "is_sentry_object": false
}